[{"OBJECT_NAME":"DMSP 5D-3 F16 (USA 172)","OBJECT_ID":"2003-048A","EPOCH":"2026-03-09T23:47:05.957088","MEAN_MOTION":14.14462092,"ECCENTRICITY":0.00081219,"INCLINATION":98.9993,"RA_OF_ASC_NODE":92.1206,"ARG_OF_PERICENTER":71.9224,"MEAN_ANOMALY":346.9229,"EPHEMERIS_TYPE":0,"CLASSIFICATION_TYPE":"U","NORAD_CAT_ID":28054,"ELEMENT_SET_NO":999,"REV_AT_EPOCH":15546,"BSTAR":0.0001083613,"MEAN_MOTION_DOT":1.62e-6,"MEAN_MOTION_DDOT":0},{"OBJECT_NAME":"METEOR 2-4","OBJECT_ID":"1979-021A","EPOCH":"2026-03-09T23:17:15.100224","MEAN_MOTION":14.12317661,"ECCENTRICITY":0.00232431,"INCLINATION":81.2146,"RA_OF_ASC_NODE":235.2929,"ARG_OF_PERICENTER":215.857,"MEAN_ANOMALY":144.1043,"EPHEMERIS_TYPE":0,"CLASSIFICATION_TYPE":"U","NORAD_CAT_ID":11288,"ELEMENT_SET_NO":999,"REV_AT_EPOCH":42101,"BSTAR":4.0703906e-5,"MEAN_MOTION_DOT":8.8e-7,"MEAN_MOTION_DDOT":0}]
